SUPERVIEW NEO-2 OBJECT A
1 68377U 26062A   26085.06175243  .00001462  00000+0  71720-4 0  9999
2 68377  97.4363  93.5445 0008999 273.7616  86.2590 15.19655825    21
SUPERVIEW NEO-2 OBJECT B
1 68378U 26062B   26085.45682560  .00002920  00000+0  14053-3 0  9993
2 68378  97.4340  93.9366 0008885 265.8774  94.1445 15.19540243    84
