CCSDS_OMM_VERS = 2.0
CREATION_DATE  = 
ORIGINATOR     = 

OBJECT_NAME    = SUPERVIEW NEO-2 OBJECT A
OBJECT_ID      = 2026-062A
CENTER_NAME    = EARTH
REF_FRAME      = TEME
TIME_SYSTEM    = UTC
MEAN_ELEMENT_THEORY = SGP/SGP4

EPOCH          = 2026-03-26T01:28:55.409952
MEAN_MOTION    = 15.19655825
ECCENTRICITY   = .00089992
INCLINATION    = 97.4363
RA_OF_ASC_NODE = 93.5445
ARG_OF_PERICENTER = 273.7616
MEAN_ANOMALY   = 86.2590

EPHEMERIS_TYPE = 0
CLASSIFICATION_TYPE = U
NORAD_CAT_ID   = 68377
ELEMENT_SET_NO = 999
REV_AT_EPOCH   = 2
BSTAR          = .7172046E-4
MEAN_MOTION_DOT = .1462E-4
MEAN_MOTION_DDOT = 0

CCSDS_OMM_VERS = 2.0
CREATION_DATE  = 
ORIGINATOR     = 

OBJECT_NAME    = SUPERVIEW NEO-2 OBJECT B
OBJECT_ID      = 2026-062B
CENTER_NAME    = EARTH
REF_FRAME      = TEME
TIME_SYSTEM    = UTC
MEAN_ELEMENT_THEORY = SGP/SGP4

EPOCH          = 2026-03-26T10:57:49.731840
MEAN_MOTION    = 15.19540243
ECCENTRICITY   = .0008885
INCLINATION    = 97.4340
RA_OF_ASC_NODE = 93.9366
ARG_OF_PERICENTER = 265.8774
MEAN_ANOMALY   = 94.1445

EPHEMERIS_TYPE = 0
CLASSIFICATION_TYPE = U
NORAD_CAT_ID   = 68378
ELEMENT_SET_NO = 999
REV_AT_EPOCH   = 8
BSTAR          = .14053E-3
MEAN_MOTION_DOT = .292E-4
MEAN_MOTION_DDOT = 0

